{
  "type": "FeatureCollection",
  "generator": "overpass-turbo",
  "copyright": "The data included in this document is from www.openstreetmap.org. The data is made available under ODbL.",
  "timestamp": "2023-11-29T20:22:47Z",
  "features": [
    {
      "type": "Feature",
      "properties": {
        "@id": "node/307179309",
        "addr:city": "Hamburg",
        "addr:housenumber": "26",
        "addr:postcode": "20146",
        "addr:street": "Binderstraße",
        "asb": "44",
        "onkz": "40",
        "operator": "Deutsche Telekom AG",
        "telecom": "exchange"
      },
      "geometry": {
        "type": "Point",
        "coordinates": [
          9.9855679,
          53.5678257
        ]
      },
      "id": "node/307179309"
    },
    {
      "type": "Feature",
      "properties": {
        "@id": "node/307179314",
        "addr:city": "Hamburg",
        "addr:housenumber": "18",
        "addr:postcode": "20359",
        "addr:street": "Budapester Straße",
        "asb": "31",
        "note:de": "http://wiki.openstreetmap.org/index.php/DE:DSL_Hauptverteiler",
        "onkz": "40",
        "operator": "Deutsche Telekom AG",
        "operator:wikidata": "Q9396",
        "source": "Deutsche Telekom AG",
        "telecom": "exchange"
      },
      "geometry": {
        "type": "Point",
        "coordinates": [
          9.967143,
          53.552853
        ]
      },
      "id": "node/307179314"
    },
    {
      "type": "Feature",
      "properties": {
        "@id": "node/307179340",
        "asb": "653",
        "onkz": "40",
        "operator": "Deutsche Telekom AG",
        "operator:wikidata": "Q9396",
        "telecom": "exchange"
      },
      "geometry": {
        "type": "Point",
        "coordinates": [
          10.11837,
          53.571311
        ]
      },
      "id": "node/307179340"
    },
    {
      "type": "Feature",
      "properties": {
        "@id": "node/307179350",
        "addr:city": "Norderstedt",
        "addr:housenumber": "354",
        "addr:postcode": "22846",
        "addr:street": "Ulzburger Straße",
        "asb": "522",
        "note:de": "http://wiki.openstreetmap.org/index.php/DE:DSL_Hauptverteiler",
        "onkz": "40",
        "operator": "Deutsche Telekom AG",
        "operator:wikidata": "Q9396",
        "source": "Deutsche Telekom AG",
        "telecom": "exchange"
      },
      "geometry": {
        "type": "Point",
        "coordinates": [
          9.999635,
          53.718059
        ]
      },
      "id": "node/307179350"
    },
    {
      "type": "Feature",
      "properties": {
        "@id": "node/307179357",
        "addr:city": "Hamburg",
        "addr:postcode": "20251",
        "addr:street": "Lehmweg",
        "asb": "42",
        "note:de": "http://wiki.openstreetmap.org/index.php/DE:DSL_Hauptverteiler",
        "onkz": "40",
        "operator": "Deutsche Telekom AG",
        "operator:wikidata": "Q9396",
        "source": "Deutsche Telekom AG",
        "telecom": "exchange"
      },
      "geometry": {
        "type": "Point",
        "coordinates": [
          9.9764404,
          53.5796943
        ]
      },
      "id": "node/307179357"
    },
    {
      "type": "Feature",
      "properties": {
        "@id": "node/307179362",
        "addr:city": "Hamburg",
        "addr:housenumber": "115a",
        "addr:postcode": "22159",
        "addr:street": "August-Krogmann-Straße",
        "asb": "643",
        "note:de": "http://wiki.openstreetmap.org/index.php/DE:DSL_Hauptverteiler",
        "onkz": "40",
        "operator": "Deutsche Telekom AG",
        "operator:wikidata": "Q9396",
        "source": "Deutsche Telekom AG",
        "telecom": "exchange"
      },
      "geometry": {
        "type": "Point",
        "coordinates": [
          10.113492,
          53.6149687
        ]
      },
      "id": "node/307179362"
    },
    {
      "type": "Feature",
      "properties": {
        "@id": "node/307179392",
        "asb": "524",
        "note:de": "http://wiki.openstreetmap.org/index.php/DE:DSL_Hauptverteiler",
        "onkz": "40",
        "operator": "Deutsche Telekom AG",
        "operator:wikidata": "Q9396",
        "source": "Deutsche Telekom AG",
        "telecom": "exchange"
      },
      "geometry": {
        "type": "Point",
        "coordinates": [
          10.034564,
          53.687688
        ]
      },
      "id": "node/307179392"
    },
    {
      "type": "Feature",
      "properties": {
        "@id": "node/307179413",
        "addr:city": "Schenefeld",
        "addr:housenumber": "1",
        "addr:postcode": "22869",
        "addr:street": "Osterbrooksweg",
        "asb": "830",
        "onkz": "40",
        "operator": "Deutsche Telekom AG",
        "telecom": "exchange"
      },
      "geometry": {
        "type": "Point",
        "coordinates": [
          9.8383587,
          53.5999275
        ]
      },
      "id": "node/307179413"
    },
    {
      "type": "Feature",
      "properties": {
        "@id": "node/307179417",
        "addr:city": "Hamburg",
        "addr:housenumber": "11",
        "addr:postcode": "22339",
        "addr:street": "Hummelsbütteler Weg",
        "asb": "538",
        "note:de": "http://wiki.openstreetmap.org/index.php/DE:DSL_Hauptverteiler",
        "onkz": "40",
        "operator": "Deutsche Telekom AG",
        "operator:wikidata": "Q9396",
        "source": "Deutsche Telekom AG",
        "telecom": "exchange"
      },
      "geometry": {
        "type": "Point",
        "coordinates": [
          10.039804,
          53.642312
        ]
      },
      "id": "node/307179417"
    },
    {
      "type": "Feature",
      "properties": {
        "@id": "node/307179431",
        "addr:city": "Hamburg",
        "addr:housenumber": "12",
        "addr:postcode": "22523",
        "addr:street": "Borkenweg",
        "asb": "57",
        "note:de": "http://wiki.openstreetmap.org/index.php/DE:DSL_Hauptverteiler",
        "onkz": "40",
        "operator": "Deutsche Telekom AG",
        "source": "Deutsche Telekom AG",
        "telecom": "exchange"
      },
      "geometry": {
        "type": "Point",
        "coordinates": [
          9.891688,
          53.613317
        ]
      },
      "id": "node/307179431"
    },
    {
      "type": "Feature",
      "properties": {
        "@id": "node/307179436",
        "addr:city": "Hamburg",
        "addr:housenumber": "23",
        "addr:postcode": "22559",
        "addr:street": "Rissener Busch",
        "asb": "81",
        "note:de": "http://wiki.openstreetmap.org/index.php/DE:DSL_Hauptverteiler",
        "onkz": "40",
        "operator": "Deutsche Telekom AG",
        "operator:wikidata": "Q9396",
        "source": "Deutsche Telekom AG",
        "telecom": "exchange"
      },
      "geometry": {
        "type": "Point",
        "coordinates": [
          9.7644342,
          53.5793993
        ]
      },
      "id": "node/307179436"
    },
    {
      "type": "Feature",
      "properties": {
        "@id": "node/307179453",
        "addr:city": "Barsbüttel",
        "addr:housenumber": "38a",
        "addr:postcode": "22885",
        "addr:street": "Hauptstraße",
        "asb": "670",
        "note:de": "http://wiki.openstreetmap.org/index.php/DE:DSL_Hauptverteiler",
        "onkz": "40",
        "operator": "Deutsche Telekom AG",
        "operator:wikidata": "Q9396",
        "source": "Deutsche Telekom AG",
        "telecom": "exchange"
      },
      "geometry": {
        "type": "Point",
        "coordinates": [
          10.162167,
          53.5685829
        ]
      },
      "id": "node/307179453"
    },
    {
      "type": "Feature",
      "properties": {
        "@id": "node/307179456",
        "addr:city": "Hamburg",
        "addr:housenumber": "74",
        "addr:postcode": "22149",
        "addr:street": "Schöneberger Straße",
        "asb": "672",
        "note:de": "http://wiki.openstreetmap.org/index.php/DE:DSL_Hauptverteiler",
        "onkz": "40",
        "operator": "Deutsche Telekom AG",
        "operator:wikidata": "Q9396",
        "source": "Deutsche Telekom AG",
        "telecom": "exchange"
      },
      "geometry": {
        "type": "Point",
        "coordinates": [
          10.152335,
          53.58683
        ]
      },
      "id": "node/307179456"
    },
    {
      "type": "Feature",
      "properties": {
        "@id": "node/307179484",
        "addr:city": "Hamburg",
        "addr:housenumber": "8",
        "addr:postcode": "22041",
        "addr:street": "Schloßstraße",
        "asb": "68",
        "note:de": "http://wiki.openstreetmap.org/index.php/DE:DSL_Hauptverteiler",
        "onkz": "40",
        "operator": "Deutsche Telekom AG",
        "operator:wikidata": "Q9396",
        "source": "Deutsche Telekom AG",
        "telecom": "exchange"
      },
      "geometry": {
        "type": "Point",
        "coordinates": [
          10.0658255,
          53.5708815
        ]
      },
      "id": "node/307179484"
    },
    {
      "type": "Feature",
      "properties": {
        "@id": "node/307179488",
        "asb": "22",
        "note:de": "http://wiki.openstreetmap.org/index.php/DE:DSL_Hauptverteiler",
        "onkz": "40",
        "operator": "Deutsche Telekom AG",
        "source": "Deutsche Telekom AG",
        "telecom": "exchange"
      },
      "geometry": {
        "type": "Point",
        "coordinates": [
          10.0242574,
          53.570481
        ]
      },
      "id": "node/307179488"
    },
    {
      "type": "Feature",
      "properties": {
        "@id": "node/307179495",
        "addr:city": "Hamburg",
        "addr:housenumber": "94",
        "addr:postcode": "22117",
        "addr:street": "Billstedter Hauptstraße",
        "asb": "731",
        "note:de": "http://wiki.openstreetmap.org/index.php/DE:DSL_Hauptverteiler",
        "onkz": "40",
        "operator": "Deutsche Telekom AG",
        "operator:wikidata": "Q9396",
        "source": "Deutsche Telekom AG",
        "telecom": "exchange"
      },
      "geometry": {
        "type": "Point",
        "coordinates": [
          10.106935,
          53.537497
        ]
      },
      "id": "node/307179495"
    },
    {
      "type": "Feature",
      "properties": {
        "@id": "node/307179500",
        "addr:city": "Hamburg",
        "addr:housenumber": "9",
        "addr:postcode": "20259",
        "addr:street": "Emilienstraße",
        "asb": "40",
        "note:de": "http://wiki.openstreetmap.org/index.php/DE:DSL_Hauptverteiler",
        "onkz": "40",
        "operator": "Deutsche Telekom AG",
        "operator:wikidata": "Q9396",
        "source": "Deutsche Telekom AG",
        "telecom": "exchange"
      },
      "geometry": {
        "type": "Point",
        "coordinates": [
          9.955846,
          53.575645
        ]
      },
      "id": "node/307179500"
    },
    {
      "type": "Feature",
      "properties": {
        "@id": "node/307179524",
        "addr:city": "Hamburg",
        "addr:housenumber": "194",
        "addr:postcode": "20537",
        "addr:street": "Hammer Landstraße",
        "asb": "21",
        "note:de": "http://wiki.openstreetmap.org/index.php/DE:DSL_Hauptverteiler",
        "onkz": "40",
        "operator": "Deutsche Telekom AG",
        "operator:wikidata": "Q9396",
        "source": "Deutsche Telekom AG",
        "telecom": "exchange"
      },
      "geometry": {
        "type": "Point",
        "coordinates": [
          10.061635,
          53.554208
        ]
      },
      "id": "node/307179524"
    },
    {
      "type": "Feature",
      "properties": {
        "@id": "node/307179528",
        "addr:city": "Hamburg",
        "addr:housenumber": "1",
        "addr:postcode": "20097",
        "addr:street": "Nagelsweg",
        "asb": "24",
        "name": "Deutsche Telekom AG",
        "note:de": "http://wiki.openstreetmap.org/index.php/DE:DSL_Hauptverteiler",
        "onkz": "40",
        "operator": "Deutsche Telekom AG",
        "operator:wikidata": "Q9396",
        "operator:wikipedia": "de:Deutsche Telekom",
        "source": "Deutsche Telekom AG",
        "telecom": "exchange"
      },
      "geometry": {
        "type": "Point",
        "coordinates": [
          10.016471,
          53.5523
        ]
      },
      "id": "node/307179528"
    },
    {
      "type": "Feature",
      "properties": {
        "@id": "node/307179552",
        "addr:city": "Hamburg",
        "addr:country": "DE",
        "addr:housenumber": "10",
        "addr:postcode": "22309",
        "addr:street": "Schmachthäger Straße",
        "asb": "63",
        "name": "Deutsche Telekom AG",
        "note:de": "http://wiki.openstreetmap.org/index.php/DE:DSL_Hauptverteiler",
        "onkz": "40",
        "operator": "Deutsche Telekom AG",
        "operator:wikidata": "Q9396",
        "operator:wikipedia": "de:Deutsche Telekom",
        "source": "Deutsche Telekom AG",
        "telecom": "exchange"
      },
      "geometry": {
        "type": "Point",
        "coordinates": [
          10.048725,
          53.6036103
        ]
      },
      "id": "node/307179552"
    },
    {
      "type": "Feature",
      "properties": {
        "@id": "node/307179556",
        "addr:city": "Hamburg",
        "addr:housenumber": "157",
        "addr:postcode": "22175",
        "addr:street": "Am Stühm-Süd",
        "asb": "640",
        "note:de": "http://wiki.openstreetmap.org/index.php/DE:DSL_Hauptverteiler",
        "onkz": "40",
        "operator": "Deutsche Telekom AG",
        "source": "Deutsche Telekom AG",
        "telecom": "exchange"
      },
      "geometry": {
        "type": "Point",
        "coordinates": [
          10.1011936,
          53.6309226
        ]
      },
      "id": "node/307179556"
    },
    {
      "type": "Feature",
      "properties": {
        "@id": "node/307179560",
        "addr:city": "Hamburg",
        "addr:housenumber": "240",
        "addr:postcode": "22177",
        "addr:street": "Bramfelder Chaussee",
        "asb": "641",
        "note:de": "http://wiki.openstreetmap.org/index.php/DE:DSL_Hauptverteiler",
        "onkz": "40",
        "operator": "Deutsche Telekom AG",
        "operator:wikidata": "Q9396",
        "source": "Deutsche Telekom AG",
        "telecom": "exchange"
      },
      "geometry": {
        "type": "Point",
        "coordinates": [
          10.075618,
          53.612892
        ]
      },
      "id": "node/307179560"
    },
    {
      "type": "Feature",
      "properties": {
        "@id": "node/307179569",
        "asb": "693",
        "note:de": "http://wiki.openstreetmap.org/index.php/DE:DSL_Hauptverteiler",
        "onkz": "40",
        "operator": "Deutsche Telekom AG",
        "source": "Deutsche Telekom AG",
        "telecom": "exchange"
      },
      "geometry": {
        "type": "Point",
        "coordinates": [
          10.0825216,
          53.5918309
        ]
      },
      "id": "node/307179569"
    },
    {
      "type": "Feature",
      "properties": {
        "@id": "node/307179574",
        "asb": "32",
        "note:de": "http://wiki.openstreetmap.org/index.php/DE:DSL_Hauptverteiler",
        "onkz": "40",
        "operator": "Deutsche Telekom AG",
        "operator:wikidata": "Q9396",
        "source": "Deutsche Telekom AG",
        "telecom": "exchange"
      },
      "geometry": {
        "type": "Point",
        "coordinates": [
          10.00042,
          53.5487951
        ]
      },
      "id": "node/307179574"
    },
    {
      "type": "Feature",
      "properties": {
        "@id": "node/307179579",
        "addr:city": "Hamburg",
        "addr:housenumber": "5",
        "addr:postcode": "20354",
        "addr:street": "Dammtorwall",
        "asb": "34",
        "onkz": "40",
        "operator": "Deutsche Telekom AG",
        "operator:wikidata": "Q9396",
        "telecom": "exchange"
      },
      "geometry": {
        "type": "Point",
        "coordinates": [
          9.987517,
          53.5575351
        ]
      },
      "id": "node/307179579"
    },
    {
      "type": "Feature",
      "properties": {
        "@id": "node/307179583",
        "addr:city": "Hamburg",
        "addr:country": "DE",
        "addr:housenumber": "61-63",
        "addr:postcode": "20457",
        "addr:street": "Alter Wall",
        "asb": "36",
        "note:de": "http://wiki.openstreetmap.org/index.php/DE:DSL_Hauptverteiler",
        "onkz": "40",
        "operator": "Deutsche Telekom AG",
        "operator:wikidata": "Q9396",
        "source": "Deutsche Telekom AG",
        "telecom": "exchange"
      },
      "geometry": {
        "type": "Point",
        "coordinates": [
          9.988821,
          53.549387
        ]
      },
      "id": "node/307179583"
    },
    {
      "type": "Feature",
      "properties": {
        "@id": "node/307179589",
        "addr:city": "Hamburg",
        "addr:housenumber": "9A",
        "addr:postcode": "22767",
        "addr:street": "Altonaer Poststraße",
        "asb": "38",
        "name": "Deutsche Telekom AG",
        "note:de": "http://wiki.openstreetmap.org/index.php/DE:DSL_Hauptverteiler",
        "onkz": "40",
        "operator": "Deutsche Telekom AG",
        "operator:wikidata": "Q9396",
        "operator:wikipedia": "de:Deutsche Telekom",
        "source": "Deutsche Telekom AG",
        "telecom": "exchange"
      },
      "geometry": {
        "type": "Point",
        "coordinates": [
          9.939561,
          53.550826
        ]
      },
      "id": "node/307179589"
    },
    {
      "type": "Feature",
      "properties": {
        "@id": "node/307179594",
        "asb": "721",
        "note:de": "http://wiki.openstreetmap.org/index.php/DE:DSL_Hauptverteiler",
        "onkz": "40",
        "operator": "Deutsche Telekom AG",
        "operator:wikidata": "Q9396",
        "source": "Deutsche Telekom AG",
        "telecom": "exchange"
      },
      "geometry": {
        "type": "Point",
        "coordinates": [
          10.2057224,
          53.4874619
        ]
      },
      "id": "node/307179594"
    },
    {
      "type": "Feature",
      "properties": {
        "@id": "node/307179598",
        "addr:city": "Hamburg",
        "addr:country": "DE",
        "addr:housenumber": "5",
        "addr:postcode": "22397",
        "addr:street": "Mesterbrooksweg",
        "asb": "607",
        "name": "Deutsche Telekom AG",
        "note:de": "http://wiki.openstreetmap.org/index.php/DE:DSL_Hauptverteiler",
        "onkz": "40",
        "operator": "Deutsche Telekom AG",
        "operator:wikidata": "Q9396",
        "operator:wikipedia": "de:Deutsche Telekom",
        "source": "Deutsche Telekom AG",
        "telecom": "exchange"
      },
      "geometry": {
        "type": "Point",
        "coordinates": [
          10.101615,
          53.704836
        ]
      },
      "id": "node/307179598"
    },
    {
      "type": "Feature",
      "properties": {
        "@id": "node/307179611",
        "addr:city": "Hamburg",
        "addr:housenumber": "5",
        "addr:postcode": "20535",
        "addr:street": "Carl-Petersen-Straße",
        "asb": "25",
        "note:de": "http://wiki.openstreetmap.org/index.php/DE:DSL_Hauptverteiler",
        "onkz": "40",
        "operator": "Deutsche Telekom AG",
        "operator:wikidata": "Q9396",
        "source": "Deutsche Telekom AG",
        "telecom": "exchange"
      },
      "geometry": {
        "type": "Point",
        "coordinates": [
          10.0404764,
          53.5592705
        ]
      },
      "id": "node/307179611"
    },
    {
      "type": "Feature",
      "properties": {
        "@id": "node/307179615",
        "asb": "78",
        "name": "Deutsche Telekom AG",
        "note:de": "http://wiki.openstreetmap.org/index.php/DE:DSL_Hauptverteiler",
        "onkz": "40",
        "operator": "Deutsche Telekom AG",
        "operator:wikidata": "Q9396",
        "operator:wikipedia": "de:Deutsche Telekom",
        "source": "Deutsche Telekom AG",
        "telecom": "exchange"
      },
      "geometry": {
        "type": "Point",
        "coordinates": [
          10.034528,
          53.537274
        ]
      },
      "id": "node/307179615"
    },
    {
      "type": "Feature",
      "properties": {
        "@id": "node/307179620",
        "addr:city": "Hamburg",
        "addr:housenumber": "1",
        "addr:postcode": "22769",
        "addr:street": "Juliusstraße",
        "asb": "43",
        "note:de": "http://wiki.openstreetmap.org/index.php/DE:DSL_Hauptverteiler",
        "onkz": "40",
        "operator": "Deutsche Telekom AG",
        "source": "Deutsche Telekom AG",
        "telecom": "exchange"
      },
      "geometry": {
        "type": "Point",
        "coordinates": [
          9.9601833,
          53.5606265
        ]
      },
      "id": "node/307179620"
    },
    {
      "type": "Feature",
      "properties": {
        "@id": "node/307179623",
        "addr:city": "Hamburg",
        "addr:housenumber": "23",
        "addr:postcode": "20249",
        "addr:street": "Eppendorfer Landstraße",
        "asb": "47",
        "note:de": "http://wiki.openstreetmap.org/index.php/DE:DSL_Hauptverteiler",
        "onkz": "40",
        "operator": "Deutsche Telekom AG",
        "operator:wikidata": "Q9396",
        "source": "Deutsche Telekom AG",
        "telecom": "exchange"
      },
      "geometry": {
        "type": "Point",
        "coordinates": [
          9.983936,
          53.587255
        ]
      },
      "id": "node/307179623"
    },
    {
      "type": "Feature",
      "properties": {
        "@id": "node/307179628",
        "asb": "59",
        "note:de": "http://wiki.openstreetmap.org/index.php/DE:DSL_Hauptverteiler",
        "onkz": "40",
        "operator": "Deutsche Telekom AG",
        "source": "Deutsche Telekom AG",
        "telecom": "exchange"
      },
      "geometry": {
        "type": "Point",
        "coordinates": [
          10.0219629,
          53.6274124
        ]
      },
      "id": "node/307179628"
    },
    {
      "type": "Feature",
      "properties": {
        "@id": "node/307179643",
        "addr:city": "Hamburg",
        "addr:housenumber": "1",
        "addr:postcode": "22587",
        "addr:street": "Auguste-Baur-Straße",
        "asb": "86",
        "note:de": "http://wiki.openstreetmap.org/index.php/DE:DSL_Hauptverteiler",
        "onkz": "40",
        "operator": "Deutsche Telekom AG",
        "operator:wikidata": "Q9396",
        "source": "Deutsche Telekom AG",
        "telecom": "exchange"
      },
      "geometry": {
        "type": "Point",
        "coordinates": [
          9.8116909,
          53.5604703
        ]
      },
      "id": "node/307179643"
    },
    {
      "type": "Feature",
      "properties": {
        "@id": "node/307179648",
        "addr:city": "Hamburg",
        "addr:housenumber": "394",
        "addr:postcode": "22589",
        "addr:street": "Osdorfer Landstraße",
        "asb": "87",
        "note:de": "http://wiki.openstreetmap.org/index.php/DE:DSL_Hauptverteiler",
        "onkz": "40",
        "operator": "Deutsche Telekom AG",
        "source": "Deutsche Telekom AG",
        "telecom": "exchange"
      },
      "geometry": {
        "type": "Point",
        "coordinates": [
          9.8255275,
          53.5763778
        ]
      },
      "id": "node/307179648"
    },
    {
      "type": "Feature",
      "properties": {
        "@id": "node/307179660",
        "asb": "77",
        "level": "1",
        "note:de": "http://wiki.openstreetmap.org/index.php/DE:DSL_Hauptverteiler",
        "onkz": "40",
        "operator": "Deutsche Telekom AG",
        "telecom": "exchange"
      },
      "geometry": {
        "type": "Point",
        "coordinates": [
          9.9815894,
          53.4595436
        ]
      },
      "id": "node/307179660"
    },
    {
      "type": "Feature",
      "properties": {
        "@id": "node/307179675",
        "addr:city": "Hamburg",
        "addr:housenumber": "7",
        "addr:postcode": "21129",
        "addr:street": "Kneienblick",
        "asb": "742",
        "note:de": "http://wiki.openstreetmap.org/index.php/DE:DSL_Hauptverteiler",
        "onkz": "40",
        "operator": "Deutsche Telekom AG",
        "source": "Deutsche Telekom AG",
        "telecom": "exchange"
      },
      "geometry": {
        "type": "Point",
        "coordinates": [
          9.863613,
          53.534776
        ]
      },
      "id": "node/307179675"
    },
    {
      "type": "Feature",
      "properties": {
        "@id": "node/307179695",
        "addr:city": "Hamburg",
        "addr:housenumber": "77",
        "addr:postcode": "21129",
        "addr:street": "Nincoper Straße",
        "asb": "745",
        "note:de": "http://wiki.openstreetmap.org/index.php/DE:DSL_Hauptverteiler",
        "onkz": "40",
        "operator": "Deutsche Telekom AG",
        "source": "Deutsche Telekom AG",
        "telecom": "exchange"
      },
      "geometry": {
        "type": "Point",
        "coordinates": [
          9.808892,
          53.513333
        ]
      },
      "id": "node/307179695"
    },
    {
      "type": "Feature",
      "properties": {
        "@id": "node/307179719",
        "addr:city": "Hamburg",
        "addr:housenumber": "19",
        "addr:postcode": "21031",
        "addr:street": "Mendelstraße",
        "asb": "738",
        "note:de": "http://wiki.openstreetmap.org/index.php/DE:DSL_Hauptverteiler",
        "onkz": "40",
        "operator": "Deutsche Telekom AG",
        "operator:wikidata": "Q9396",
        "source": "Deutsche Telekom AG",
        "telecom": "exchange"
      },
      "geometry": {
        "type": "Point",
        "coordinates": [
          10.191505,
          53.506708
        ]
      },
      "id": "node/307179719"
    },
    {
      "type": "Feature",
      "properties": {
        "@id": "node/307179729",
        "asb": "644",
        "note:de": "http://wiki.openstreetmap.org/index.php/DE:DSL_Hauptverteiler",
        "onkz": "40",
        "operator": "Deutsche Telekom AG",
        "source": "Deutsche Telekom AG",
        "telecom": "exchange"
      },
      "geometry": {
        "type": "Point",
        "coordinates": [
          10.1344726,
          53.6284291
        ]
      },
      "id": "node/307179729"
    },
    {
      "type": "Feature",
      "properties": {
        "@id": "node/307179749",
        "addr:city": "Hamburg",
        "addr:housenumber": "101",
        "addr:postcode": "22391",
        "addr:street": "Wellingsbüttler Weg",
        "asb": "536",
        "onkz": "40",
        "operator": "Deutsche Telekom AG",
        "telecom": "exchange"
      },
      "geometry": {
        "type": "Point",
        "coordinates": [
          10.078018,
          53.6415089
        ]
      },
      "id": "node/307179749"
    },
    {
      "type": "Feature",
      "properties": {
        "@id": "node/307179755",
        "addr:city": "Hamburg",
        "addr:housenumber": "77",
        "addr:postcode": "21035",
        "addr:street": "Rahel-Varnhagen-Weg",
        "asb": "735",
        "note:de": "http://wiki.openstreetmap.org/index.php/DE:DSL_Hauptverteiler",
        "onkz": "40",
        "operator": "Deutsche Telekom AG",
        "operator:wikidata": "Q9396",
        "source": "Deutsche Telekom AG",
        "telecom": "exchange"
      },
      "geometry": {
        "type": "Point",
        "coordinates": [
          10.170691,
          53.488152
        ]
      },
      "id": "node/307179755"
    },
    {
      "type": "Feature",
      "properties": {
        "@id": "node/307179776",
        "asb": "604",
        "note:de": "http://wiki.openstreetmap.org/index.php/DE:DSL_Hauptverteiler",
        "onkz": "40",
        "operator": "Deutsche Telekom AG",
        "source": "Deutsche Telekom AG",
        "telecom": "exchange"
      },
      "geometry": {
        "type": "Point",
        "coordinates": [
          10.126625,
          53.6697439
        ]
      },
      "id": "node/307179776"
    },
    {
      "type": "Feature",
      "properties": {
        "@id": "node/307190677",
        "addr:city": "Rellingen",
        "addr:housenumber": "33",
        "addr:postcode": "25462",
        "addr:street": "Hans-Reumann-Straße",
        "asb": "3",
        "note:de": "http://wiki.openstreetmap.org/index.php/DE:DSL_Hauptverteiler",
        "onkz": "4101",
        "operator": "Deutsche Telekom AG",
        "source": "Deutsche Telekom AG",
        "telecom": "exchange"
      },
      "geometry": {
        "type": "Point",
        "coordinates": [
          9.8796326,
          53.6382972
        ]
      },
      "id": "node/307190677"
    },
    {
      "type": "Feature",
      "properties": {
        "@id": "node/307190686",
        "addr:city": "Pinneberg",
        "addr:country": "DE",
        "addr:housenumber": "16",
        "addr:postcode": "25421",
        "addr:street": "Hollandweg",
        "asb": "6",
        "note:de": "http://wiki.openstreetmap.org/index.php/DE:DSL_Hauptverteiler",
        "onkz": "4101",
        "operator": "Deutsche Telekom AG",
        "source": "Deutsche Telekom AG",
        "telecom": "exchange"
      },
      "geometry": {
        "type": "Point",
        "coordinates": [
          9.8007214,
          53.6432592
        ]
      },
      "id": "node/307190686"
    },
    {
      "type": "Feature",
      "properties": {
        "@id": "node/307190695",
        "addr:city": "Ahrensburg",
        "addr:housenumber": "2",
        "addr:postcode": "22926",
        "addr:street": "Helgolandring",
        "asb": "4",
        "note:de": "http://wiki.openstreetmap.org/index.php/DE:DSL_Hauptverteiler",
        "onkz": "4102",
        "operator": "Deutsche Telekom AG",
        "source": "Deutsche Telekom AG",
        "telecom": "exchange"
      },
      "geometry": {
        "type": "Point",
        "coordinates": [
          10.24164,
          53.685002
        ]
      },
      "id": "node/307190695"
    },
    {
      "type": "Feature",
      "properties": {
        "@id": "node/307190700",
        "addr:city": "Ahrensburg",
        "addr:housenumber": "3",
        "addr:postcode": "22926",
        "addr:street": "Gerhardstraße",
        "asb": "5",
        "note:de": "http://wiki.openstreetmap.org/index.php/DE:DSL_Hauptverteiler",
        "onkz": "4102",
        "operator": "Deutsche Telekom AG",
        "operator:wikidata": "Q9396",
        "source": "Deutsche Telekom AG",
        "telecom": "exchange"
      },
      "geometry": {
        "type": "Point",
        "coordinates": [
          10.2369263,
          53.6713109
        ]
      },
      "id": "node/307190700"
    },
    {
      "type": "Feature",
      "properties": {
        "@id": "node/307190709",
        "addr:city": "Wedel",
        "addr:country": "DE",
        "addr:housenumber": "4",
        "addr:postcode": "22880",
        "addr:street": "Eichendorffweg",
        "asb": "1",
        "note:de": "http://wiki.openstreetmap.org/index.php/DE:DSL_Hauptverteiler",
        "onkz": "4103",
        "operator": "Deutsche Telekom AG",
        "source": "Deutsche Telekom AG",
        "telecom": "exchange"
      },
      "geometry": {
        "type": "Point",
        "coordinates": [
          9.7027957,
          53.5792962
        ]
      },
      "id": "node/307190709"
    },
    {
      "type": "Feature",
      "properties": {
        "@id": "node/307190735",
        "addr:city": "Quickborn",
        "addr:housenumber": "23",
        "addr:postcode": "25451",
        "addr:street": "Justus-von-Liebig-Ring",
        "asb": "6",
        "note:de": "http://wiki.openstreetmap.org/index.php/DE:DSL_Hauptverteiler",
        "onkz": "4106",
        "operator": "Deutsche Telekom AG",
        "operator:wikidata": "Q9396",
        "source": "Deutsche Telekom AG",
        "telecom": "exchange"
      },
      "geometry": {
        "type": "Point",
        "coordinates": [
          9.910021,
          53.734973
        ]
      },
      "id": "node/307190735"
    },
    {
      "type": "Feature",
      "properties": {
        "@id": "node/307190739",
        "addr:city": "Quickborn",
        "addr:country": "DE",
        "addr:housenumber": "4",
        "addr:postcode": "25451",
        "addr:street": "Friedrichsgaber Straße",
        "asb": "7",
        "note:de": "http://wiki.openstreetmap.org/index.php/DE:DSL_Hauptverteiler",
        "onkz": "4106",
        "operator": "Deutsche Telekom AG",
        "source": "Deutsche Telekom AG",
        "telecom": "exchange"
      },
      "geometry": {
        "type": "Point",
        "coordinates": [
          9.932862,
          53.750207
        ]
      },
      "id": "node/307190739"
    },
    {
      "type": "Feature",
      "properties": {
        "@id": "node/307190748",
        "addr:city": "Hoisdorf",
        "addr:housenumber": "2",
        "addr:postcode": "22955",
        "addr:street": "Moorweg",
        "asb": "4",
        "note:de": "http://wiki.openstreetmap.org/index.php/DE:DSL_Hauptverteiler",
        "onkz": "4107",
        "operator": "Deutsche Telekom AG",
        "source": "Deutsche Telekom AG",
        "telecom": "exchange"
      },
      "geometry": {
        "type": "Point",
        "coordinates": [
          10.314111,
          53.6533297
        ]
      },
      "id": "node/307190748"
    },
    {
      "type": "Feature",
      "properties": {
        "@id": "node/307190788",
        "addr:city": "Uetersen",
        "addr:housenumber": "7",
        "addr:postcode": "25436",
        "addr:street": "Berliner Straße",
        "asb": "2",
        "note:de": "http://wiki.openstreetmap.org/index.php/DE:DSL_Hauptverteiler",
        "onkz": "4122",
        "operator": "Deutsche Telekom AG",
        "source": "Deutsche Telekom AG",
        "telecom": "exchange"
      },
      "geometry": {
        "type": "Point",
        "coordinates": [
          9.669614,
          53.684993
        ]
      },
      "id": "node/307190788"
    },
    {
      "type": "Feature",
      "properties": {
        "@id": "node/307190792",
        "addr:city": "Moorrege",
        "addr:housenumber": "35",
        "addr:postcode": "25436",
        "addr:street": "Ohlenkamp",
        "asb": "8",
        "note:de": "http://wiki.openstreetmap.org/index.php/DE:DSL_Hauptverteiler",
        "onkz": "4122",
        "operator": "Deutsche Telekom AG",
        "source": "Deutsche Telekom AG",
        "telecom": "exchange"
      },
      "geometry": {
        "type": "Point",
        "coordinates": [
          9.667355,
          53.669443
        ]
      },
      "id": "node/307190792"
    },
    {
      "type": "Feature",
      "properties": {
        "@id": "node/307190983",
        "addr:city": "Geesthacht",
        "addr:housenumber": "30",
        "addr:postcode": "21502",
        "addr:street": "Trift",
        "asb": "1",
        "note:de": "http://wiki.openstreetmap.org/index.php/DE:DSL_Hauptverteiler",
        "onkz": "4152",
        "operator": "Deutsche Telekom AG",
        "operator:wikidata": "Q9396",
        "source": "Deutsche Telekom AG",
        "telecom": "exchange"
      },
      "geometry": {
        "type": "Point",
        "coordinates": [
          10.377505,
          53.435518
        ]
      },
      "id": "node/307190983"
    },
    {
      "type": "Feature",
      "properties": {
        "@id": "node/307190999",
        "addr:city": "Grönwohld",
        "addr:housenumber": "4",
        "addr:postcode": "22956",
        "addr:street": "Poststraße",
        "asb": "5",
        "note:de": "http://wiki.openstreetmap.org/index.php/DE:DSL_Hauptverteiler",
        "onkz": "4154",
        "operator": "Deutsche Telekom AG",
        "source": "Deutsche Telekom AG",
        "telecom": "exchange"
      },
      "geometry": {
        "type": "Point",
        "coordinates": [
          10.409334,
          53.641318
        ]
      },
      "id": "node/307190999"
    },
    {
      "type": "Feature",
      "properties": {
        "@id": "node/307191008",
        "addr:city": "Lütjensee",
        "addr:housenumber": "11",
        "addr:postcode": "22952",
        "addr:street": "Trittauer Straße",
        "asb": "7",
        "note:de": "http://wiki.openstreetmap.org/index.php/DE:DSL_Hauptverteiler",
        "onkz": "4154",
        "operator": "Deutsche Telekom AG",
        "source": "Deutsche Telekom AG",
        "telecom": "exchange"
      },
      "geometry": {
        "type": "Point",
        "coordinates": [
          10.368656,
          53.641251
        ]
      },
      "id": "node/307191008"
    },
    {
      "type": "Feature",
      "properties": {
        "@id": "node/307191028",
        "addr:city": "Buxtehude",
        "addr:country": "DE",
        "addr:housenumber": "6",
        "addr:postcode": "21614",
        "addr:street": "Bahnhofstraße",
        "asb": "2",
        "onkz": "4161",
        "operator": "Deutsche Telekom AG",
        "telecom": "exchange"
      },
      "geometry": {
        "type": "Point",
        "coordinates": [
          9.6957467,
          53.4746757
        ]
      },
      "id": "node/307191028"
    },
    {
      "type": "Feature",
      "properties": {
        "@id": "node/712965725",
        "addr:city": "Hamburg",
        "addr:housenumber": "169",
        "addr:postcode": "22393",
        "addr:street": "Saseler Chaussee",
        "asb": "601",
        "note": "Do not delete! If at wrong position please move to the building of the Telekom",
        "note:de": "Nicht Loeschen! Wenn falsche position bitte auf das Telekom Gebaeude verschieben",
        "onkz": "40",
        "operator": "Deutsche Telekom AG",
        "source": "Deutsche Telekom AG",
        "telecom": "exchange"
      },
      "geometry": {
        "type": "Point",
        "coordinates": [
          10.1038992,
          53.6499612
        ]
      },
      "id": "node/712965725"
    },
    {
      "type": "Feature",
      "properties": {
        "@id": "node/712972627",
        "addr:city": "Hamburg",
        "addr:housenumber": "78",
        "addr:postcode": "22045",
        "addr:street": "Tonndorfer Hauptstraße",
        "asb": "66",
        "note": "Do not delete! If at wrong position please move to the building of the Telekom",
        "note:de": "Nicht Loeschen! Wenn falsche position bitte auf das Telekom Gebaeude verschieben",
        "onkz": "40",
        "operator": "Deutsche Telekom AG",
        "operator:wikidata": "Q9396",
        "telecom": "exchange"
      },
      "geometry": {
        "type": "Point",
        "coordinates": [
          10.1245776,
          53.5857419
        ]
      },
      "id": "node/712972627"
    },
    {
      "type": "Feature",
      "properties": {
        "@id": "node/713008104",
        "addr:city": "Großhansdorf",
        "addr:housenumber": "2",
        "addr:postcode": "22927",
        "addr:street": "Wassenkamp",
        "asb": "6",
        "note": "Do not delete! If at wrong position please move to the building of the Telekom;Do not move! Recreate the housenumber node if desired",
        "note:de": "Nicht Loeschen! Wenn falsche position bitte auf das Telekom Gebaeude verschieben;Nicht verschieben! Node für Hausnummer bei Bedarf neu erzeugen",
        "onkz": "4102",
        "operator": "Deutsche Telekom AG",
        "source": "Deutsche Telekom AG",
        "telecom": "exchange"
      },
      "geometry": {
        "type": "Point",
        "coordinates": [
          10.2649976,
          53.6541349
        ]
      },
      "id": "node/713008104"
    },
    {
      "type": "Feature",
      "properties": {
        "@id": "node/2401471471",
        "asb": "550",
        "note:de": "http://wiki.openstreetmap.org/index.php/DE:DSL_Hauptverteiler",
        "onkz": "40",
        "operator": "Deutsche Telekom AG",
        "operator:wikidata": "Q9396",
        "source": "Deutsche Telekom AG",
        "telecom": "exchange"
      },
      "geometry": {
        "type": "Point",
        "coordinates": [
          9.9213364,
          53.6328267
        ]
      },
      "id": "node/2401471471"
    },
    {
      "type": "Feature",
      "properties": {
        "@id": "node/6048940676",
        "hinge": "horizontal",
        "location": "pavement",
        "man_made": "street_cabinet",
        "operator": "Deutsche Telekom AG",
        "operator:wikidata": "Q9396",
        "street_cabinet": "telecom",
        "telecom": "exchange",
        "telecom:medium": "copper"
      },
      "geometry": {
        "type": "Point",
        "coordinates": [
          9.958992,
          53.5550581
        ]
      },
      "id": "node/6048940676"
    },
    {
      "type": "Feature",
      "properties": {
        "@id": "node/6048940677",
        "hinge": "horizontal",
        "location": "pavement",
        "man_made": "street_cabinet",
        "street_cabinet": "telecom",
        "telecom": "exchange"
      },
      "geometry": {
        "type": "Point",
        "coordinates": [
          9.9599316,
          53.5553599
        ]
      },
      "id": "node/6048940677"
    },
    {
      "type": "Feature",
      "properties": {
        "@id": "node/6190566162",
        "operator": "Deutsche Telekom AG",
        "operator:wikidata": "Q9396",
        "telecom": "exchange"
      },
      "geometry": {
        "type": "Point",
        "coordinates": [
          9.9598581,
          53.6318178
        ]
      },
      "id": "node/6190566162"
    }
  ]
}